{"type": "FeatureCollection", "features": [ {"type": "Feature", "properties": {"norad_id": 29986, "name": "FENGYUN 1C DEB", "group": "fengyun-1c-debris", "lat": -5.103382872984214, "lon": -132.68612885505712, "alt_km": 814.2409801783961, "timestamp": "2025-12-06T22:38:43.001283+00:00", "meta": {"OBJECT_NAME": "FENGYUN 1C DEB", "OBJECT_ID": "1999-025LL", "EPOCH": "2025-12-06T15:46:48.825984", "MEAN_MOTION": 14.29149206, "ECCENTRICITY": 0.00228675, "INCLINATION": 99.3989, "RA_OF_ASC_NODE": 47.8533, "ARG_OF_PERICENTER": 16.2925, "MEAN_ANOMALY": 137.8546, "EPHEMERIS_TYPE": 0, "CLASSIFICATION_TYPE": "U", "NORAD_CAT_ID": 29986, "ELEMENT_SET_NO": 999, "REV_AT_EPOCH": 97420, "BSTAR": 0.0028251167, "MEAN_MOTION_DOT": 7.144e-05, "MEAN_MOTION_DDOT": 0}, "tle": {"line1": "1 29986U 99025LL  25340.65750956  .00007144  00000+0  28251-2 0  9991", "line2": "2 29986  99.3989  47.8533 0022867  16.2925 137.8546 14.29149206974207"}}, "geometry": {"type": "Point", "coordinates": [-132.68612885505712, -5.103382872984214]}}, {"type": "Feature", "properties": {"norad_id": 29987, "name": "FENGYUN 1C DEB", "group": "fengyun-1c-debris", "lat": 80.36459543425582, "lon": 165.62386478731193, "alt_km": 892.4565128165759, "timestamp": "2025-12-06T22:38:43.001293+00:00", "meta": {"OBJECT_NAME": "FENGYUN 1C DEB", "OBJECT_ID": "1999-025LM", "EPOCH": "2025-12-06T15:45:38.149920", "MEAN_MOTION": 14.14456092, "ECCENTRICITY": 0.00803039, "INCLINATION": 98.8974, "RA_OF_ASC_NODE": 232.6613, "ARG_OF_PERICENTER": 251.1946, "MEAN_ANOMALY": 175.4662, "EPHEMERIS_TYPE": 0, "CLASSIFICATION_TYPE": "U", "NORAD_CAT_ID": 29987, "ELEMENT_SET_NO": 999, "REV_AT_EPOCH": 96287, "BSTAR": 0.0043390439, "MEAN_MOTION_DOT": 8.539e-05, "MEAN_MOTION_DDOT": 0}, "tle": {"line1": "1 29987U 99025LM  25340.65669155  .00008539  00000+0  43390-2 0  9992", "line2": "2 29987  98.8974 232.6613 0080303 251.1946 175.4662 14.14456092962876"}}, "geometry": {"type": "Point", "coordinates": [165.62386478731193, 80.36459543425582]}}, {"type": "Feature", "properties": {"norad_id": 29988, "name": "FENGYUN 1C DEB", "group": "fengyun-1c-debris", "lat": 79.07901584055745, "lon": 32.16707045172376, "alt_km": 658.6759684539993, "timestamp": "2025-12-06T22:38:43.001303+00:00", "meta": {"OBJECT_NAME": "FENGYUN 1C DEB", "OBJECT_ID": "1999-025LN", "EPOCH": "2025-12-06T05:50:56.075712", "MEAN_MOTION": 14.5026513, "ECCENTRICITY": 0.01209741, "INCLINATION": 98.6966, "RA_OF_ASC_NODE": 83.9367, "ARG_OF_PERICENTER": 38.0656, "MEAN_ANOMALY": 352.5279, "EPHEMERIS_TYPE": 0, "CLASSIFICATION_TYPE": "U", "NORAD_CAT_ID": 29988, "ELEMENT_SET_NO": 999, "REV_AT_EPOCH": 97973, "BSTAR": 0.0028127125, "MEAN_MOTION_DOT": 0.00012001, "MEAN_MOTION_DDOT": 0}, "tle": {"line1": "1 29988U 99025LN  25340.24370458  .00012001  00000+0  28127-2 0  9993", "line2": "2 29988  98.6966  83.9367 0120974  38.0656 352.5279 14.50265130979734"}}, "geometry": {"type": "Point", "coordinates": [32.16707045172376, 79.07901584055745]}}, {"type": "Feature", "properties": {"norad_id": 29989, "name": "FENGYUN 1C DEB", "group": "fengyun-1c-debris", "lat": 0.020243150808415097, "lon": -40.113073204256956, "alt_km": 917.2238706882699, "timestamp": "2025-12-06T22:38:43.001313+00:00", "meta": {"OBJECT_NAME": "FENGYUN 1C DEB", "OBJECT_ID": "1999-025LP", "EPOCH": "2025-12-05T23:14:06.118368", "MEAN_MOTION": 14.15812469, "ECCENTRICITY": 0.01229318, "INCLINATION": 98.667, "RA_OF_ASC_NODE": 318.9411, "ARG_OF_PERICENTER": 215.1441, "MEAN_ANOMALY": 215.3516, "EPHEMERIS_TYPE": 0, "CLASSIFICATION_TYPE": "U", "NORAD_CAT_ID": 29989, "ELEMENT_SET_NO": 999, "REV_AT_EPOCH": 97515, "BSTAR": 0.00025042722, "MEAN_MOTION_DOT": 4.86e-06, "MEAN_MOTION_DDOT": 0}, "tle": {"line1": "1 29989U 99025LP  25339.96812637  .00000486  00000+0  25043-3 0  9990", "line2": "2 29989  98.6670 318.9411 0122931 215.1441 215.3516 14.15812469975159"}}, "geometry": {"type": "Point", "coordinates": [-40.113073204256956, 0.020243150808415097]}}, {"type": "Feature", "properties": {"norad_id": 29992, "name": "FENGYUN 1C DEB", "group": "fengyun-1c-debris", "lat": -48.376409526757946, "lon": -13.808242376842147, "alt_km": 898.7101916206993, "timestamp": "2025-12-06T22:38:43.001323+00:00", "meta": {"OBJECT_NAME": "FENGYUN 1C DEB", "OBJECT_ID": "1999-025LS", "EPOCH": "2025-12-06T11:41:24.338400", "MEAN_MOTION": 14.11608304, "ECCENTRICITY": 0.00885589, "INCLINATION": 98.7296, "RA_OF_ASC_NODE": 335.7904, "ARG_OF_PERICENTER": 185.4025, "MEAN_ANOMALY": 326.3572, "EPHEMERIS_TYPE": 0, "CLASSIFICATION_TYPE": "U", "NORAD_CAT_ID": 29992, "ELEMENT_SET_NO": 999, "REV_AT_EPOCH": 97299, "BSTAR": 0.00013452436, "MEAN_MOTION_DOT": 2.11e-06, "MEAN_MOTION_DDOT": 0}, "tle": {"line1": "1 29992U 99025LS  25340.48708725  .00000211  00000+0  13452-3 0  9992", "line2": "2 29992  98.7296 335.7904 0088558 185.4025 326.3572 14.11608304972996"}}, "geometry": {"type": "Point", "coordinates": [-13.808242376842147, -48.376409526757946]}}, {"type": "Feature", "properties": {"norad_id": 29993, "name": "FENGYUN 1C DEB", "group": "fengyun-1c-debris", "lat": -15.293121193486458, "lon": 20.251758433671995, "alt_km": 843.0840912763151, "timestamp": "2025-12-06T22:38:43.001333+00:00", "meta": {"OBJECT_NAME": "FENGYUN 1C DEB", "OBJECT_ID": "1999-025LT", "EPOCH": "2025-12-06T14:11:29.520960", "MEAN_MOTION": 14.0814592, "ECCENTRICITY": 0.00386989, "INCLINATION": 98.7941, "RA_OF_ASC_NODE": 17.4826, "ARG_OF_PERICENTER": 332.3728, "MEAN_ANOMALY": 27.5385, "EPHEMERIS_TYPE": 0, "CLASSIFICATION_TYPE": "U", "NORAD_CAT_ID": 29993, "ELEMENT_SET_NO": 999, "REV_AT_EPOCH": 97083, "BSTAR": 0.00017303255, "MEAN_MOTION_DOT": 2.54e-06, "MEAN_MOTION_DDOT": 0}, "tle": {"line1": "1 29993U 99025LT  25340.59131390  .00000254  00000+0  17303-3 0  9999", "line2": "2 29993  98.7941  17.4826 0038698 332.3728  27.5385 14.08145920970833"}}, "geometry": {"type": "Point", "coordinates": [20.251758433671995, -15.293121193486458]}}, {"type": "Feature", "properties": {"norad_id": 29994, "name": "FENGYUN 1C DEB", "group": "fengyun-1c-debris", "lat": 31.4369118998728, "lon": 7.913243885390158, "alt_km": 972.2312148799292, "timestamp": "2025-12-06T22:38:43.001343+00:00", "meta": {"OBJECT_NAME": "FENGYUN 1C DEB", "OBJECT_ID": "1999-025LU", "EPOCH": "2025-12-06T16:10:53.400288", "MEAN_MOTION": 14.02638642, "ECCENTRICITY": 0.01295148, "INCLINATION": 98.8301, "RA_OF_ASC_NODE": 13.1046, "ARG_OF_PERICENTER": 230.6258, "MEAN_ANOMALY": 241.6643, "EPHEMERIS_TYPE": 0, "CLASSIFICATION_TYPE": "U", "NORAD_CAT_ID": 29994, "ELEMENT_SET_NO": 999, "REV_AT_EPOCH": 96641, "BSTAR": 0.00039597017, "MEAN_MOTION_DOT": 6.14e-06, "MEAN_MOTION_DDOT": 0}, "tle": {"line1": "1 29994U 99025LU  25340.67422917  .00000614  00000+0  39597-3 0  9996", "line2": "2 29994  98.8301  13.1046 0129514 230.6258 241.6643 14.02638642966415"}}, "geometry": {"type": "Point", "coordinates": [7.913243885390158, 31.4369118998728]}}, {"type": "Feature", "properties": {"norad_id": 29996, "name": "FENGYUN 1C DEB", "group": "fengyun-1c-debris", "lat": 68.55334626599266, "lon": -6.530548942150144, "alt_km": 774.5743167084347, "timestamp": "2025-12-06T22:38:43.001353+00:00", "meta": {"OBJECT_NAME": "FENGYUN 1C DEB", "OBJECT_ID": "1999-025LW", "EPOCH": "2025-12-06T16:05:47.260896", "MEAN_MOTION": 14.0936529, "ECCENTRICITY": 0.01321421, "INCLINATION": 99.3032, "RA_OF_ASC_NODE": 17.8498, "ARG_OF_PERICENTER": 104.8019, "MEAN_ANOMALY": 22.959, "EPHEMERIS_TYPE": 0, "CLASSIFICATION_TYPE": "U", "NORAD_CAT_ID": 29996, "ELEMENT_SET_NO": 999, "REV_AT_EPOCH": 96051, "BSTAR": 0.002840434, "MEAN_MOTION_DOT": 5.326e-05, "MEAN_MOTION_DDOT": 0}, "tle": {"line1": "1 29996U 99025LW  25340.67068589  .00005326  00000+0  28404-2 0  9998", "line2": "2 29996  99.3032  17.8498 0132142 104.8019  22.9590 14.09365290960513"}}, "geometry": {"type": "Point", "coordinates": [-6.530548942150144, 68.55334626599266]}}, {"type": "Feature", "properties": {"norad_id": 29997, "name": "FENGYUN 1C DEB", "group": "fengyun-1c-debris", "lat": -78.01006438566883, "lon": 124.14230861405404, "alt_km": 889.1429252658836, "timestamp": "2025-12-06T22:38:43.001363+00:00", "meta": {"OBJECT_NAME": "FENGYUN 1C DEB", "OBJECT_ID": "1999-025LX", "EPOCH": "2025-12-06T11:50:51.360864", "MEAN_MOTION": 14.00856358, "ECCENTRICITY": 0.0080331, "INCLINATION": 98.8809, "RA_OF_ASC_NODE": 351.1149, "ARG_OF_PERICENTER": 344.7469, "MEAN_ANOMALY": 170.4116, "EPHEMERIS_TYPE": 0, "CLASSIFICATION_TYPE": "U", "NORAD_CAT_ID": 29997, "ELEMENT_SET_NO": 999, "REV_AT_EPOCH": 96302, "BSTAR": 0.0013087693, "MEAN_MOTION_DOT": 1.968e-05, "MEAN_MOTION_DDOT": 0}, "tle": {"line1": "1 29997U 99025LX  25340.49365001  .00001968  00000+0  13088-2 0  9998", "line2": "2 29997  98.8809 351.1149 0080331 344.7469 170.4116 14.00856358963026"}}, "geometry": {"type": "Point", "coordinates": [124.14230861405404, -78.01006438566883]}}, {"type": "Feature", "properties": {"norad_id": 29998, "name": "FENGYUN 1C DEB", "group": "fengyun-1c-debris", "lat": -61.91660829642594, "lon": 58.85652833016406, "alt_km": 800.783854445941, "timestamp": "2025-12-06T22:38:43.001373+00:00", "meta": {"OBJECT_NAME": "FENGYUN 1C DEB", "OBJECT_ID": "1999-025LY", "EPOCH": "2025-12-06T14:32:10.415040", "MEAN_MOTION": 14.28506752, "ECCENTRICITY": 0.00046294, "INCLINATION": 99.3066, "RA_OF_ASC_NODE": 40.5986, "ARG_OF_PERICENTER": 320.6546, "MEAN_ANOMALY": 39.4297, "EPHEMERIS_TYPE": 0, "CLASSIFICATION_TYPE": "U", "NORAD_CAT_ID": 29998, "ELEMENT_SET_NO": 999, "REV_AT_EPOCH": 97787, "BSTAR": 0.0015605646, "MEAN_MOTION_DOT": 3.862e-05, "MEAN_MOTION_DDOT": 0}, "tle": {"line1": "1 29998U 99025LY  25340.60567610  .00003862  00000+0  15606-2 0  9995", "line2": "2 29998  99.3066  40.5986 0004629 320.6546  39.4297 14.28506752977873"}}, "geometry": {"type": "Point", "coordinates": [58.85652833016406, -61.91660829642594]}}]}